25286,IRIDIUM 63,1998,100.3,-1.0,-,86.4,Inactive,0,LEO,Kazakhstan,USA,Unknown,Unknown,Unknown,1 25286U 98021B   24123.45123901  .00000699  00000+0  23548-3 0  9998,2 25286  86.3976 254.1636 0002193  98.7680 261.3765 14.35722074364899,14.35722074,0.0002193,LEO
25319,IRIDIUM 69,1998,100.0,-1.0,-,86.39,Inactive,0,LEO,PRC,USA,Unknown,Unknown,Unknown,1 25319U 98026A   24123.86242281  .00000814  00000+0  25276-3 0  9997,2 25319  86.3949 268.5234 0000893   2.1482 357.9720 14.39937964364234,14.39937964,8.93e-05,LEO
25320,IRIDIUM 71,1998,99.98,-1.0,-,86.4,Inactive,0,LEO,PRC,USA,Unknown,Unknown,Unknown,1 25320U 98026B   24123.45551021  .00000790  00000+0  24358-3 0  9992,2 25320  86.3953 263.4622 0002963  47.2560 312.8888 14.40257209364451,14.40257209,0.0002963,LEO
25344,IRIDIUM 73,1998,99.28,-1.0,-,86.45,Inactive,0,LEO,USA,USA,Unknown,Unknown,Unknown,1 25344U 98032C   24123.56461725  .00000836  00000+0  20865-3 0  9998,2 25344  86.4470 220.9160 0001700  86.8148 273.3252 14.50475967371016,14.50475967,0.00017,LEO
25467,IRIDIUM 82,1998,95.43,-1.0,-,86.37,Inactive,0,LEO,USA,USA,Unknown,Unknown,Unknown,1 25467U 98051A   24123.53600214  .00010522  00000+0  54306-3 0  9990,2 25467  86.3707 307.4223 0131171  29.3323 331.5193 15.08893034361606,15.08893034,0.0131171,LEO
25527,IRIDIUM 2,1998,91.63,-1.0,-,85.51,Inactive,0,LEO,USA,USA,Unknown,Unknown,Unknown,1 25527U 98066A   24123.84527035  .00139916  00000+0  10731-2 0  9998,2 25527  85.5056 332.7288 0004092 128.1975 231.9664 15.71657990400277,15.7165799,0.0004092,LEO
25273,IRIDIUM 57,1998,100.34,-1.0,-,86.39,Inactive,0,LEO,USA,USA,Unknown,Unknown,Unknown,1 25273U 98019B   24123.54948997  .00000469  00000+0  15750-3 0  9992,2 25273  86.3930 317.2521 0002163  88.5385 271.6059 14.35178204365874,14.35178204,0.0002163,LEO
